SENTINEL-6              
1 46984U 20086A   24108.87895445 -.00000035  00000+0  11261-3 0  9994
2 46984  66.0434 336.5325 0007782 271.2465  88.7659 12.80929952159100
